{
  "type": "FeatureCollection",
  "features": [
    {
      "type": "Feature",
      "properties": {
        "norad_id": 38755,
        "name": "SPOT 6",
        "group": "resource",
        "lat": -0.6819713739669913,
        "lon": 63.94194161711602,
        "alt_km": 700.7814173268125,
        "timestamp": "2025-12-25T07:00:33.699515+00:00",
        "meta_object_name": "SPOT 6",
        "meta_object_id": "2012-047A",
        "meta_epoch": "2025-12-24T22:46:48.839232",
        "meta_mean_motion": 14.58541726,
        "meta_eccentricity": 0.00012616,
        "meta_inclination": 98.1554,
        "meta_ra_of_asc_node": 63.5077,
        "meta_arg_of_pericenter": 79.0114,
        "meta_mean_anomaly": 281.1228,
        "meta_ephemeris_type": 0,
        "meta_classification_type": "U",
        "meta_norad_cat_id": 38755,
        "meta_element_set_no": 999,
        "meta_rev_at_epoch": 70765,
        "meta_bstar": 3.7715583e-05,
        "meta_mean_motion_dot": 1.3e-06,
        "meta_mean_motion_ddot": 0,
        "tle_line1": "1 38755U 12047A   25358.94917638  .00000130  00000+0  37716-4 0  9993",
        "tle_line2": "2 38755  98.1554  63.5077 0001261  79.0114 281.1228 14.58541726707654"
      },
      "geometry": {
        "type": "Point",
        "coordinates": [
          63.94194161711602,
          -0.6819713739669913
        ]
      }
    },
    {
      "type": "Feature",
      "properties": {
        "norad_id": 39019,
        "name": "PLEIADES 1B",
        "group": "resource",
        "lat": -75.43046077509081,
        "lon": -141.8470833853649,
        "alt_km": 705.9517850972661,
        "timestamp": "2025-12-25T07:00:33.699525+00:00",
        "meta_object_name": "PLEIADES 1B",
        "meta_object_id": "2012-068A",
        "meta_epoch": "2025-12-24T23:14:41.545824",
        "meta_mean_motion": 14.58562356,
        "meta_eccentricity": 0.00011658,
        "meta_inclination": 98.1779,
        "meta_ra_of_asc_node": 71.4266,
        "meta_arg_of_pericenter": 87.7683,
        "meta_mean_anomaly": 272.365,
        "meta_ephemeris_type": 0,
        "meta_classification_type": "U",
        "meta_norad_cat_id": 39019,
        "meta_element_set_no": 999,
        "meta_rev_at_epoch": 69545,
        "meta_bstar": 1.7203309e-05,
        "meta_mean_motion_dot": 3.4e-07,
        "meta_mean_motion_ddot": 0,
        "tle_line1": "1 39019U 12068A   25358.96853641  .00000034  00000+0  17203-4 0  9997",
        "tle_line2": "2 39019  98.1779  71.4266 0001165  87.7683 272.3650 14.58562356695452"
      },
      "geometry": {
        "type": "Point",
        "coordinates": [
          -141.8470833853649,
          -75.43046077509081
        ]
      }
    },
    {
      "type": "Feature",
      "properties": {
        "norad_id": 39030,
        "name": "GOKTURK 2",
        "group": "resource",
        "lat": 31.415386630911637,
        "lon": 25.060753948293694,
        "alt_km": 641.6981338226533,
        "timestamp": "2025-12-25T07:00:33.699535+00:00",
        "meta_object_name": "GOKTURK 2",
        "meta_object_id": "2012-073A",
        "meta_epoch": "2025-12-24T23:49:44.351616",
        "meta_mean_motion": 14.75308062,
        "meta_eccentricity": 0.0001438,
        "meta_inclination": 97.6883,
        "meta_ra_of_asc_node": 200.0437,
        "meta_arg_of_pericenter": 106.6536,
        "meta_mean_anomaly": 253.4831,
        "meta_ephemeris_type": 0,
        "meta_classification_type": "U",
        "meta_norad_cat_id": 39030,
        "meta_element_set_no": 999,
        "meta_rev_at_epoch": 69882,
        "meta_bstar": 0.00014442546,
        "meta_mean_motion_dot": 9.31e-06,
        "meta_mean_motion_ddot": 0,
        "tle_line1": "1 39030U 12073A   25358.99287444  .00000931  00000+0  14443-3 0  9999",
        "tle_line2": "2 39030  97.6883 200.0437 0001438 106.6536 253.4831 14.75308062698822"
      },
      "geometry": {
        "type": "Point",
        "coordinates": [
          25.060753948293694,
          31.415386630911637
        ]
      }
    },
    {
      "type": "Feature",
      "properties": {
        "norad_id": 39084,
        "name": "LANDSAT 8",
        "group": "resource",
        "lat": 2.566190297953372,
        "lon": 66.80876617221546,
        "alt_km": 705.1347955738147,
        "timestamp": "2025-12-25T07:00:33.699551+00:00",
        "meta_object_name": "LANDSAT 8",
        "meta_object_id": "2013-008A",
        "meta_epoch": "2025-12-24T21:06:32.761440",
        "meta_mean_motion": 14.57114451,
        "meta_eccentricity": 0.00010592,
        "meta_inclination": 98.2056,
        "meta_ra_of_asc_node": 66.773,
        "meta_arg_of_pericenter": 93.2103,
        "meta_mean_anomaly": 266.9217,
        "meta_ephemeris_type": 0,
        "meta_classification_type": "U",
        "meta_norad_cat_id": 39084,
        "meta_element_set_no": 999,
        "meta_rev_at_epoch": 67251,
        "meta_bstar": 0.00010382243,
        "meta_mean_motion_dot": 4.23e-06,
        "meta_mean_motion_ddot": 0,
        "tle_line1": "1 39084U 13008A   25358.87954585  .00000423  00000+0  10382-3 0  9995",
        "tle_line2": "2 39084  98.2056  66.7730 0001059  93.2103 266.9217 14.57114451672515"
      },
      "geometry": {
        "type": "Point",
        "coordinates": [
          66.80876617221546,
          2.566190297953372
        ]
      }
    },
    {
      "type": "Feature",
      "properties": {
        "norad_id": 39086,
        "name": "SARAL",
        "group": "resource",
        "lat": -30.020283506887115,
        "lon": -171.95449399118073,
        "alt_km": 789.3197945766024,
        "timestamp": "2025-12-25T07:00:33.699561+00:00",
        "meta_object_name": "SARAL",
        "meta_object_id": "2013-009A",
        "meta_epoch": "2025-12-24T21:05:40.722720",
        "meta_mean_motion": 14.32761139,
        "meta_eccentricity": 0.00029602,
        "meta_inclination": 98.5503,
        "meta_ra_of_asc_node": 182.6509,
        "meta_arg_of_pericenter": 85.8193,
        "meta_mean_anomaly": 274.333,
        "meta_ephemeris_type": 0,
        "meta_classification_type": "U",
        "meta_norad_cat_id": 39086,
        "meta_element_set_no": 999,
        "meta_rev_at_epoch": 67064,
        "meta_bstar": 6.2666299e-05,
        "meta_mean_motion_dot": 1.27e-06,
        "meta_mean_motion_ddot": 0,
        "tle_line1": "1 39086U 13009A   25358.87894355  .00000127  00000+0  62666-4 0  9990",
        "tle_line2": "2 39086  98.5503 182.6509 0002960  85.8193 274.3330 14.32761139670642"
      },
      "geometry": {
        "type": "Point",
        "coordinates": [
          -171.95449399118073,
          -30.020283506887115
        ]
      }
    },
    {
      "type": "Feature",
      "properties": {
        "norad_id": 39150,
        "name": "GAOFEN-1",
        "group": "resource",
        "lat": -76.15884738904919,
        "lon": 104.18710314964369,
        "alt_km": 660.7088395044566,
        "timestamp": "2025-12-25T07:00:33.699572+00:00",
        "meta_object_name": "GAOFEN-1",
        "meta_object_id": "2013-018A",
        "meta_epoch": "2025-12-24T23:14:01.432032",
        "meta_mean_motion": 14.76500578,
        "meta_eccentricity": 0.00185398,
        "meta_inclination": 97.9311,
        "meta_ra_of_asc_node": 69.4101,
        "meta_arg_of_pericenter": 106.0253,
        "meta_mean_anomaly": 254.3,
        "meta_ephemeris_type": 0,
        "meta_classification_type": "U",
        "meta_norad_cat_id": 39150,
        "meta_element_set_no": 999,
        "meta_rev_at_epoch": 68253,
        "meta_bstar": 0.00014537398,
        "meta_mean_motion_dot": 9.64e-06,
        "meta_mean_motion_ddot": 0,
        "tle_line1": "1 39150U 13018A   25358.96807213  .00000964  00000+0  14537-3 0  9991",
        "tle_line2": "2 39150  97.9311  69.4101 0018539 106.0253 254.3000 14.76500578682535"
      },
      "geometry": {
        "type": "Point",
        "coordinates": [
          104.18710314964369,
          -76.15884738904919
        ]
      }
    },
    {
      "type": "Feature",
      "properties": {
        "norad_id": 39160,
        "name": "VNREDSAT 1",
        "group": "resource",
        "lat": -1.2232419189447943,
        "lon": -126.04475732902111,
        "alt_km": 680.5469332248585,
        "timestamp": "2025-12-25T07:00:33.699582+00:00",
        "meta_object_name": "VNREDSAT 1",
        "meta_object_id": "2013-021B",
        "meta_epoch": "2025-12-24T23:37:41.563776",
        "meta_mean_motion": 14.64939407,
        "meta_eccentricity": 0.00011891,
        "meta_inclination": 97.9352,
        "meta_ra_of_asc_node": 53.8292,
        "meta_arg_of_pericenter": 83.8712,
        "meta_mean_anomaly": 276.2627,
        "meta_ephemeris_type": 0,
        "meta_classification_type": "U",
        "meta_norad_cat_id": 39160,
        "meta_element_set_no": 999,
        "meta_rev_at_epoch": 67478,
        "meta_bstar": 9.3848377e-05,
        "meta_mean_motion_dot": 4.57e-06,
        "meta_mean_motion_ddot": 0,
        "tle_line1": "1 39160U 13021B   25358.98450884  .00000457  00000+0  93848-4 0  9996",
        "tle_line2": "2 39160  97.9352  53.8292 0001189  83.8712 276.2627 14.64939407674784"
      },
      "geometry": {
        "type": "Point",
        "coordinates": [
          -126.04475732902111,
          -1.2232419189447943
        ]
      }
    }
  ]
}